start=new Date('2023-02-23T00:00:00.000Z').valueOf();
sats=[{"BSTAR":"0.00161480000000","RA_OF_ASC_NODE":"39.0928","ECCENTRICITY":"0.00012540","APOAPSIS":"548.071","COUNTRY_CODE":"US","OBJECT_TYPE":"PAYLOAD","FILE":"3825529","TLE_LINE2":"2 48317  53.0559  39.0928 0001254 110.0624 250.0500 15.06403521100717","EPOCH":"2023-02-22T16:31:42.290688","TIME_SYSTEM":"UTC","ELEMENT_SET_NO":"999","SITE":"AFETR","MEAN_MOTION_DOT":"0.00023855","RCS_SIZE":"LARGE","PERIAPSIS":"546.334","MEAN_ANOMALY":"250.0500","DECAY_DATE":null,"MEAN_MOTION_DDOT":"0.0000000000000","MEAN_ELEMENT_THEORY":"SGP4","OBJECT_ID":"2021-036AT","INCLINATION":"53.0559","TLE_LINE1":"1 48317U 21036AT  23053.68868392  .00023855  00000-0  16148-2 0  9993","ARG_OF_PERICENTER":"110.0624","CLASSIFICATION_TYPE":"U","GP_ID":"226472398","SEMIMAJOR_AXIS":"6925.338","MEAN_MOTION":"15.06403521","CENTER_NAME":"EARTH","PERIOD":"95.592","OBJECT_NAME":"STARLINK-2513","EPHEMERIS_TYPE":"0","REV_AT_EPOCH":"10071","NORAD_CAT_ID":"48317","REF_FRAME":"TEME","LAUNCH_DATE":"2021-04-29"},{"MEAN_ANOMALY":"249.4836","PERIAPSIS":"546.072","RCS_SIZE":"LARGE","SITE":"AFETR","MEAN_MOTION_DOT":"0.00020313","ELEMENT_SET_NO":"999","TIME_SYSTEM":"UTC","EPOCH":"2023-02-22T16:19:45.621696","TLE_LINE2":"2 48318  53.0538  49.1372 0001611 110.6326 249.4836 15.06408572100571","FILE":"3825529","APOAPSIS":"548.303","COUNTRY_CODE":"US","OBJECT_TYPE":"PAYLOAD","ECCENTRICITY":"0.00016110","BSTAR":"0.00137830000000","RA_OF_ASC_NODE":"49.1372","REF_FRAME":"TEME","LAUNCH_DATE":"2021-04-29","NORAD_CAT_ID":"48318","REV_AT_EPOCH":"10057","EPHEMERIS_TYPE":"0","CENTER_NAME":"EARTH","PERIOD":"95.592","OBJECT_NAME":"STARLINK-2509","MEAN_MOTION":"15.06408572","GP_ID":"226472648","CLASSIFICATION_TYPE":"U","SEMIMAJOR_AXIS":"6925.322","TLE_LINE1":"1 48318U 21036AU  23053.68038914  .00020313  00000-0  13783-2 0  9991","ARG_OF_PERICENTER":"110.6326","INCLINATION":"53.0538","MEAN_ELEMENT_THEORY":"SGP4","OBJECT_ID":"2021-036AU","MEAN_MOTION_DDOT":"0.0000000000000","DECAY_DATE":null},{"BSTAR":"0.00164320000000","RA_OF_ASC_NODE":"47.9598","ECCENTRICITY":"0.00017360","APOAPSIS":"548.392","COUNTRY_CODE":"US","OBJECT_TYPE":"PAYLOAD","FILE":"3825529","TLE_LINE2":"2 48319  53.0535  47.9598 0001736  80.4273 279.6912 15.06407829100617","EPOCH":"2023-02-22T22:35:15.385056","TIME_SYSTEM":"UTC","ELEMENT_SET_NO":"999","MEAN_MOTION_DOT":"0.00024284","SITE":"AFETR","RCS_SIZE":"LARGE","PERIAPSIS":"545.987","MEAN_ANOMALY":"279.6912","DECAY_DATE":null,"MEAN_MOTION_DDOT":"0.0000000000000","MEAN_ELEMENT_THEORY":"SGP4","OBJECT_ID":"2021-036AV","INCLINATION":"53.0535","ARG_OF_PERICENTER":"80.4273","TLE_LINE1":"1 48319U 21036AV  23053.94115029  .00024284  00000-0  16432-2 0  9999","GP_ID":"226472899","CLASSIFICATION_TYPE":"U","SEMIMAJOR_AXIS":"6925.325","MEAN_MOTION":"15.06407829","CENTER_NAME":"EARTH","PERIOD":"95.592","OBJECT_NAME":"STARLINK-2512","EPHEMERIS_TYPE":"0","NORAD_CAT_ID":"48319","REV_AT_EPOCH":"10061","LAUNCH_DATE":"2021-04-29","REF_FRAME":"TEME"},{"INCLINATION":"53.0543","ARG_OF_PERICENTER":"108.7522","TLE_LINE1":"1 48320U 21036AW  23053.67301100  .00031032  00000-0  20937-2 0  9992","DECAY_DATE":null,"MEAN_MOTION_DDOT":"0.0000000000000","MEAN_ELEMENT_THEORY":"SGP4","OBJECT_ID":"2021-036AW","EPHEMERIS_TYPE":"0","NORAD_CAT_ID":"48320","REV_AT_EPOCH":"10057","REF_FRAME":"TEME","LAUNCH_DATE":"2021-04-29","GP_ID":"226473124","CLASSIFICATION_TYPE":"U","SEMIMAJOR_AXIS":"6925.384","MEAN_MOTION":"15.06388346","CENTER_NAME":"EARTH","PERIOD":"95.593","OBJECT_NAME":"STARLINK-2029","APOAPSIS":"548.607","OBJECT_TYPE":"PAYLOAD","COUNTRY_CODE":"US","FILE":"3825529","BSTAR":"0.00209370000000","RA_OF_ASC_NODE":"49.1696","ECCENTRICITY":"0.00019610","ELEMENT_SET_NO":"999","SITE":"AFETR","RCS_SIZE":"LARGE","MEAN_MOTION_DOT":"0.00031032","PERIAPSIS":"545.891","MEAN_ANOMALY":"251.3679","TLE_LINE2":"2 48320  53.0543  49.1696 0001961 108.7522 251.3679 15.06388346100576","EPOCH":"2023-02-22T16:09:08.150400","TIME_SYSTEM":"UTC"},{"RA_OF_ASC_NODE":"50.0824","BSTAR":"0.00052612000000","ECCENTRICITY":"0.00018550","OBJECT_TYPE":"PAYLOAD","COUNTRY_CODE":"US","APOAPSIS":"548.535","FILE":"3824148","TLE_LINE2":"2 48321  53.0535  50.0824 0001855  90.0572 270.0630 15.06388097100547","EPOCH":"2023-02-22T11:17:13.076736","TIME_SYSTEM":"UTC","ELEMENT_SET_NO":"999","SITE":"AFETR","MEAN_MOTION_DOT":"0.00007561","RCS_SIZE":"LARGE","PERIAPSIS":"545.965","MEAN_ANOMALY":"270.0630","DECAY_DATE":null,"MEAN_MOTION_DDOT":"0.0000000000000","OBJECT_ID":"2021-036AX","MEAN_ELEMENT_THEORY":"SGP4","INCLINATION":"53.0535","TLE_LINE1":"1 48321U 21036AX  23053.47029024  .00007561  00000-0  52612-3 0  9999","ARG_OF_PERICENTER":"90.0572","SEMIMAJOR_AXIS":"6925.385","GP_ID":"226421370","CLASSIFICATION_TYPE":"U","MEAN_MOTION":"15.06388097","PERIOD":"95.593","OBJECT_NAME":"STARLINK-2457","CENTER_NAME":"EARTH","EPHEMERIS_TYPE":"0","REV_AT_EPOCH":"10054","NORAD_CAT_ID":"48321","LAUNCH_DATE":"2021-04-29","REF_FRAME":"TEME"},{"RA_OF_ASC_NODE":"50.0990","BSTAR":"0.00140260000000","ECCENTRICITY":"0.00016120","OBJECT_TYPE":"PAYLOAD","COUNTRY_CODE":"US","APOAPSIS":"548.429","FILE":"3824148","TLE_LINE2":"2 48322  53.0534  50.0990 0001612 120.5882 239.5266 15.06367554100545","EPOCH":"2023-02-22T11:11:52.125792","TIME_SYSTEM":"UTC","ELEMENT_SET_NO":"999","SITE":"AFETR","RCS_SIZE":"LARGE","MEAN_MOTION_DOT":"0.00020654","PERIAPSIS":"546.197","MEAN_ANOMALY":"239.5266","DECAY_DATE":null,"MEAN_MOTION_DDOT":"0.0000000000000","OBJECT_ID":"2021-036AY","MEAN_ELEMENT_THEORY":"SGP4","INCLINATION":"53.0534","ARG_OF_PERICENTER":"120.5882","TLE_LINE1":"1 48322U 21036AY  23053.46657553  .00020654  00000-0  14026-2 0  9997","SEMIMAJOR_AXIS":"6925.448","CLASSIFICATION_TYPE":"U","GP_ID":"226419637","MEAN_MOTION":"15.06367554","PERIOD":"95.594","OBJECT_NAME":"STARLINK-2477","CENTER_NAME":"EARTH","EPHEMERIS_TYPE":"0","NORAD_CAT_ID":"48322","REV_AT_EPOCH":"10054","LAUNCH_DATE":"2021-04-29","REF_FRAME":"TEME"},{"COUNTRY_CODE":"US","OBJECT_TYPE":"PAYLOAD","APOAPSIS":"548.319","FILE":"3824148","RA_OF_ASC_NODE":"50.4077","BSTAR":"0.00043209000000","ECCENTRICITY":"0.00015770","ELEMENT_SET_NO":"999","SITE":"AFETR","RCS_SIZE":"LARGE","MEAN_MOTION_DOT":"0.00006160","PERIAPSIS":"546.135","MEAN_ANOMALY":"283.2340","TLE_LINE2":"2 48323  53.0541  50.4077 0001577  76.8824 283.2340 15.06395706100531","EPOCH":"2023-02-22T09:31:03.586656","TIME_SYSTEM":"UTC","INCLINATION":"53.0541","ARG_OF_PERICENTER":"76.8824","TLE_LINE1":"1 48323U 21036AZ  23053.39656929  .00006160  00000-0  43209-3 0  9998","DECAY_DATE":null,"MEAN_MOTION_DDOT":"0.0000000000000","OBJECT_ID":"2021-036AZ","MEAN_ELEMENT_THEORY":"SGP4","EPHEMERIS_TYPE":"0","REV_AT_EPOCH":"10053","NORAD_CAT_ID":"48323","LAUNCH_DATE":"2021-04-29","REF_FRAME":"TEME","SEMIMAJOR_AXIS":"6925.362","GP_ID":"226419889","CLASSIFICATION_TYPE":"U","MEAN_MOTION":"15.06395706","PERIOD":"95.592","OBJECT_NAME":"STARLINK-2515","CENTER_NAME":"EARTH"},{"LAUNCH_DATE":"2021-04-29","REF_FRAME":"TEME","NORAD_CAT_ID":"48324","REV_AT_EPOCH":"10057","EPHEMERIS_TYPE":"0","CENTER_NAME":"EARTH","PERIOD":"95.593","OBJECT_NAME":"STARLINK-2527","MEAN_MOTION":"15.06394005","CLASSIFICATION_TYPE":"U","GP_ID":"226473625","SEMIMAJOR_AXIS":"6925.367","TLE_LINE1":"1 48324U 21036BA  23053.72367834  .00020553  00000-0  13949-2 0  9999","ARG_OF_PERICENTER":"81.8593","INCLINATION":"53.0537","MEAN_ELEMENT_THEORY":"SGP4","OBJECT_ID":"2021-036BA","MEAN_MOTION_DDOT":"0.0000000000000","DECAY_DATE":null,"MEAN_ANOMALY":"278.2560","PERIAPSIS":"546.231","MEAN_MOTION_DOT":"0.00020553","SITE":"AFETR","RCS_SIZE":"LARGE","ELEMENT_SET_NO":"999","TIME_SYSTEM":"UTC","EPOCH":"2023-02-22T17:22:05.808576","TLE_LINE2":"2 48324  53.0537  48.9340 0001445  81.8593 278.2560 15.06394005100578","FILE":"3825529","APOAPSIS":"548.233","OBJECT_TYPE":"PAYLOAD","COUNTRY_CODE":"US","ECCENTRICITY":"0.00014450","BSTAR":"0.00139490000000","RA_OF_ASC_NODE":"48.9340"},{"DECAY_DATE":null,"MEAN_ELEMENT_THEORY":"SGP4","OBJECT_ID":"2021-036BB","MEAN_MOTION_DDOT":"0.0000000000000","INCLINATION":"53.0542","ARG_OF_PERICENTER":"96.8863","TLE_LINE1":"1 48325U 21036BB  23053.72094184  .00014759  00000-0  10076-2 0  9994","MEAN_MOTION":"15.06400301","CLASSIFICATION_TYPE":"U","GP_ID":"226472399","SEMIMAJOR_AXIS":"6925.348","CENTER_NAME":"EARTH","PERIOD":"95.592","OBJECT_NAME":"STARLINK-2495","REV_AT_EPOCH":"10058","NORAD_CAT_ID":"48325","EPHEMERIS_TYPE":"0","LAUNCH_DATE":"2021-04-29","REF_FRAME":"TEME","BSTAR":"0.00100760000000","RA_OF_ASC_NODE":"48.9547","ECCENTRICITY":"0.00016090","APOAPSIS":"548.327","COUNTRY_CODE":"US","OBJECT_TYPE":"PAYLOAD","FILE":"3825529","EPOCH":"2023-02-22T17:18:09.374976","TLE_LINE2":"2 48325  53.0542  48.9547 0001609  96.8863 263.2309 15.06400301100585","TIME_SYSTEM":"UTC","SITE":"AFETR","RCS_SIZE":"LARGE","MEAN_MOTION_DOT":"0.00014759","ELEMENT_SET_NO":"999","MEAN_ANOMALY":"263.2309","PERIAPSIS":"546.098"},{"MEAN_MOTION":"15.06406074","SEMIMAJOR_AXIS":"6925.330","GP_ID":"226472649","CLASSIFICATION_TYPE":"U","PERIOD":"95.592","OBJECT_NAME":"STARLINK-2498","CENTER_NAME":"EARTH","REV_AT_EPOCH":"10058","NORAD_CAT_ID":"48326","EPHEMERIS_TYPE":"0","REF_FRAME":"TEME","LAUNCH_DATE":"2021-04-29","DECAY_DATE":null,"OBJECT_ID":"2021-036BC","MEAN_ELEMENT_THEORY":"SGP4","MEAN_MOTION_DDOT":"0.0000000000000","INCLINATION":"53.0537","ARG_OF_PERICENTER":"109.0626","TLE_LINE1":"1 48326U 21036BC  23053.71725219  .00021703  00000-0  14712-2 0  9992","EPOCH":"2023-02-22T17:12:50.589216","TLE_LINE2":"2 48326  53.0537  48.9695 0001418 109.0626 251.0516 15.06406074100584","TIME_SYSTEM":"UTC","SITE":"AFETR","MEAN_MOTION_DOT":"0.00021703","RCS_SIZE":"LARGE","ELEMENT_SET_NO":"999","MEAN_ANOMALY":"251.0516","PERIAPSIS":"546.213","RA_OF_ASC_NODE":"48.9695","BSTAR":"0.00147120000000","ECCENTRICITY":"0.00014180","OBJECT_TYPE":"PAYLOAD","COUNTRY_CODE":"US","APOAPSIS":"548.177","FILE":"3825529"}];
